STARLINK-32687          
1 63565U 25075T   26068.54251514  .00022577  00000+0  82711-3 0  9997
2 63565  42.9983 271.5462 0002249 304.0179  56.0458 15.27591814 51917
REAL                    
1 64875U 25154G   26068.72233414  .00022901  00000+0  82904-3 0  9994
2 64875  97.4133 137.2581 0001853 118.5876 241.5550 15.28408058 34830
